NORAD_CAT_ID,OBJECT_NAME,OBJECT_TYPE,EPOCH,MEAN_MOTION,ECCENTRICITY,INCLINATION,RA_OF_ASC_NODE,ARG_OF_PERICENTER,MEAN_ANOMALY,BSTAR,MEAN_MOTION_DOT,MEAN_MOTION_DDOT,TLE_LINE0,TLE_LINE1,TLE_LINE2,SEMIMAJOR_AXIS,PERIOD,APOGEE,PERIGEE,DECAYED
54076.0,STARLINK-5201,PAYLOAD,2024-03-12 04:47:14,15.08842916,0.0001617,53.2191,9.5286,95.9249,264.1927,0.00017193,2.45e-05,0.0,0 STARLINK-5201,1 54076U 22136AB  24072.19947226  .00002450  00000-0  17193-3 0  9996,2 54076  53.2191   9.5286 0001617  95.9249 264.1927 15.08842916 77502,6917.871,95.437,540.855,538.618,0.0
54076.0,STARLINK-5201,PAYLOAD,2024-03-12 12:44:10,15.08840502,0.0001647,53.2192,8.0398,92.0591,268.059,0.0001921,2.771e-05,0.0,0 STARLINK-5201,1 54076U 22136AB  24072.53067405  .00002771  00000-0  19210-3 0  9994,2 54076  53.2192   8.0398 0001647  92.0591 268.0590 15.08840502 77072,6917.879,95.438,540.883,538.604,0.0
54076.0,STARLINK-5201,PAYLOAD,2024-03-13 12:34:56,15.08845294,0.0001386,53.2178,3.5764,88.4255,271.6896,0.00020738,3.015e-05,0.0,0 STARLINK-5201,1 54076U 22136AB  24073.52427033  .00003015  00000-0  20738-3 0  9990,2 54076  53.2178   3.5764 0001386  88.4255 271.6896 15.08845294 77701,6917.864,95.437,540.688,538.77,0.0
54076.0,STARLINK-5201,PAYLOAD,2024-03-14 04:28:48,15.08848911,0.0001463,53.2179,0.6021,93.7168,266.3991,0.00018383,2.64e-05,0.0,0 STARLINK-5201,1 54076U 22136AB  24074.18666793  .00002640  00000-0  18383-3 0  9997,2 54076  53.2179   0.6021 0001463  93.7168 266.3991 15.08848911 77328,6917.853,95.437,540.73,538.706,0.0
54076.0,STARLINK-5201,PAYLOAD,2024-03-15 04:19:35,15.08842303,0.0001401,53.2177,356.14,90.4778,269.6375,0.00011091,1.478e-05,0.0,0 STARLINK-5201,1 54076U 22136AB  24075.18027227  .00001478  00000-0  11091-3 0  9998,2 54076  53.2177 356.1400 0001401  90.4778 269.6375 15.08842303 77959,6917.873,95.437,540.708,538.769,0.0
54076.0,STARLINK-5201,PAYLOAD,2024-03-16 04:10:21,15.0887326,0.0001452,53.2182,351.6822,81.5634,278.5522,0.00066314,0.00010291,0.0,0 STARLINK-5201,1 54076U 22136AB  24076.17385850  .00010291  00000-0  66314-3 0  9998,2 54076  53.2182 351.6822 0001452  81.5634 278.5522 15.08873260 78108,6917.779,95.435,540.648,538.639,0.0
54076.0,STARLINK-5201,PAYLOAD,2024-03-16 18:28:49,15.08862384,0.0001586,53.2173,349.0007,99.4494,260.6677,0.00034737,5.248e-05,0.0,0 STARLINK-5201,1 54076U 22136AB  24076.77001504  .00005248  00000-0  34737-3 0  9995,2 54076  53.2173 349.0007 0001586  99.4494 260.6677 15.08862384 78191,6917.812,95.436,540.774,538.58,0.0
54076.0,STARLINK-5201,PAYLOAD,2024-03-16 21:39:35,15.08847833,0.0001264,53.2178,348.4112,58.5887,301.5229,-9.2407e-06,-4.35e-06,0.0,0 STARLINK-5201,1 54076U 22136AB  24076.90249925 -.00000435  00000-0 -92407-5 0  9996,2 54076  53.2178 348.4112 0001264  58.5887 301.5229 15.08847833 77730,6917.856,95.437,540.596,538.847,0.0
54076.0,STARLINK-5201,PAYLOAD,2024-03-17 04:01:08,15.08837882,9.75e-05,53.2167,347.2284,91.7773,268.3331,-9.9241e-05,-1.867e-05,0.0,0 STARLINK-5201,1 54076U 22136AB  24077.16746384 -.00001867  00000-0 -99241-4 0  9998,2 54076  53.2167 347.2284 0000975  91.7773 268.3331 15.08837882 78251,6917.887,95.438,540.426,539.077,0.0
54076.0,STARLINK-5201,PAYLOAD,2024-03-17 21:30:23,15.08838353,0.0001464,53.2189,343.9513,78.1728,281.9429,-0.0003279,-5.502e-05,0.0,0 STARLINK-5201,1 54076U 22136AB  24077.89610767 -.00005502  00000-0 -32790-3 0  9998,2 54076  53.2189 343.9513 0001464  78.1728 281.9429 15.08838353 77887,6917.885,95.438,540.763,538.738,0.0
54076.0,STARLINK-5201,PAYLOAD,2024-03-17 23:05:46,15.08839911,0.0001417,53.2178,343.6552,73.0446,287.0702,-0.00033278,-5.58e-05,0.0,0 STARLINK-5201,1 54076U 22136AB  24077.96234674 -.00005580  00000-0 -33278-3 0  9993,2 54076  53.2178 343.6552 0001417  73.0446 287.0702 15.08839911 77897,6917.881,95.438,540.726,538.765,0.0
54076.0,STARLINK-5201,PAYLOAD,2024-03-18 21:21:10,15.08866885,0.0001174,53.2172,339.4943,81.4273,278.6852,0.00079991,0.00012475,0.0,0 STARLINK-5201,1 54076U 22136AB  24078.88969917  .00012475  00000-0  79991-3 0  9991,2 54076  53.2172 339.4943 0001174  81.4273 278.6852 15.08866885 78511,6917.798,95.436,540.475,538.851,0.0
54076.0,STARLINK-5201,PAYLOAD,2024-03-18 22:56:33,15.08868909,0.0001153,53.2175,339.1973,79.1643,280.9479,0.00080362,0.00012535,0.0,0 STARLINK-5201,1 54076U 22136AB  24078.95593795  .00012535  00000-0  80362-3 0  9997,2 54076  53.2175 339.1973 0001153  79.1643 280.9479 15.08868909 78044,6917.792,95.436,540.455,538.859,0.0
54076.0,STARLINK-5201,PAYLOAD,2024-03-19 21:11:57,15.08832415,0.0002365,53.2155,335.0185,153.306,206.8054,-0.00020702,-3.581e-05,0.0,0 STARLINK-5201,1 54076U 22136AB  24079.88330588 -.00003581  00000-0 -20702-3 0  9994,2 54076  53.2155 335.0185 0002365 153.3060 206.8054 15.08832415 78663,6917.904,95.438,541.405,538.132,0.0
54076.0,STARLINK-5201,PAYLOAD,2024-03-20 01:58:07,15.08826067,0.0001168,53.2157,334.1367,110.1882,249.9236,-0.00023776,-4.068e-05,0.0,0 STARLINK-5201,1 54076U 22136AB  24080.08203361 -.00004068  00000-0 -23776-3 0  9991,2 54076  53.2157 334.1367 0001168 110.1882 249.9236 15.08826067 78699,6917.923,95.438,540.596,538.98,0.0
54076.0,STARLINK-5201,PAYLOAD,2024-03-20 21:02:45,15.08838146,0.0001249,53.2158,330.5683,121.9519,238.1595,3.1134e-05,2.08e-06,0.0,0 STARLINK-5201,1 54076U 22136AB  24080.87691509  .00000208  00000-0  31134-4 0  9991,2 54076  53.2158 330.5683 0001249 121.9519 238.1595 15.08838146 78811,6917.886,95.438,540.615,538.887,0.0
54076.0,STARLINK-5201,PAYLOAD,2024-03-20 22:38:08,15.08837416,0.0001269,53.2159,330.2727,113.4793,246.6333,0.00034513,5.209e-05,0.0,0 STARLINK-5201,1 54076U 22136AB  24080.94315822  .00005209  00000-0  34513-3 0  9999,2 54076  53.2159 330.2727 0001269 113.4793 246.6333 15.08837416 78341,6917.888,95.438,540.631,538.875,0.0
54076.0,STARLINK-5201,PAYLOAD,2024-03-21 09:45:51,15.08840564,0.0001426,53.217,328.1879,117.5386,242.5751,0.00045918,7.028e-05,0.0,0 STARLINK-5201,1 54076U 22136AB  24081.40684314  .00007028  00000-0  45918-3 0  9998,2 54076  53.2170 328.1879 0001426 117.5386 242.5751 15.08840564 78411,6917.879,95.438,540.73,538.757,0.0
54076.0,STARLINK-5201,PAYLOAD,2024-03-21 22:28:56,15.08856239,0.0001615,53.2175,325.8096,110.2813,249.8353,0.00075495,0.00011753,0.0,0 STARLINK-5201,1 54076U 22136AB  24081.93675986  .00011753  00000-0  75495-3 0  9994,2 54076  53.2175 325.8096 0001615 110.2813 249.8353 15.08856239 78498,6917.831,95.437,540.813,538.579,0.0
54076.0,STARLINK-5201,PAYLOAD,2024-03-22 20:44:19,15.08853016,0.0001566,53.2166,321.6505,92.1289,267.9882,0.00034697,5.24e-05,0.0,0 STARLINK-5201,1 54076U 22136AB  24082.86411678  .00005240  00000-0  34697-3 0  9996,2 54076  53.2166 321.6505 0001566  92.1289 267.9882 15.08853016 79115,6917.841,95.437,540.789,538.622,0.0
54076.0,STARLINK-5201,PAYLOAD,2024-03-23 20:35:06,15.08844556,0.0001367,53.2162,317.1893,90.9222,269.1927,0.00015652,2.204e-05,0.0,0 STARLINK-5201,1 54076U 22136AB  24083.85771910  .00002204  00000-0  15652-3 0  9991,2 54076  53.2162 317.1893 0001367  90.9222 269.1927 15.08844556 79262,6917.866,95.437,540.677,538.786,0.0
54076.0,STARLINK-5201,PAYLOAD,2024-03-23 22:10:29,15.08845392,0.0001423,53.2163,316.8877,92.3963,267.7192,0.00015318,2.151e-05,0.0,0 STARLINK-5201,1 54076U 22136AB  24083.92395787  .00002151  00000-0  15318-3 0  9993,2 54076  53.2163 316.8877 0001423  92.3963 267.7192 15.08845392 78796,6917.864,95.437,540.713,538.744,0.0
54076.0,STARLINK-5201,PAYLOAD,2024-03-24 01:21:16,15.08846867,0.000149,53.2167,316.2936,107.5292,252.5863,0.00020494,2.976e-05,0.0,0 STARLINK-5201,1 54076U 22136AB  24084.05643589  .00002976  00000-0  20494-3 0  9990,2 54076  53.2167 316.2936 0001490 107.5292 252.5863 15.08846867 78816,6917.859,95.437,540.755,538.694,0.0
54076.0,STARLINK-5201,PAYLOAD,2024-03-24 22:01:16,15.08872486,0.0001399,53.217,312.4357,74.1757,285.9389,0.0013332,0.00021012,0.0,0 STARLINK-5201,1 54076U 22136AB  24084.91755663  .00021012  00000-0  13332-2 0  9996,2 54076  53.2170 312.4357 0001399  74.1757 285.9389 15.08872486 79425,6917.781,95.435,540.614,538.678,0.0
54076.0,STARLINK-5201,PAYLOAD,2024-03-25 07:33:35,15.08854731,0.0001254,53.2153,310.6423,64.6432,295.469,0.0011885,0.00018685,0.0,0 STARLINK-5201,1 54076U 22136AB  24085.31499567  .00018685  00000-0  11885-2 0  9992,2 54076  53.2153 310.6423 0001254  64.6432 295.4690 15.08854731 79484,6917.835,95.437,540.568,538.833,0.0
54076.0,STARLINK-5201,PAYLOAD,2024-03-25 21:52:05,15.0881569,0.0001625,53.2162,307.9735,91.7777,268.3401,0.00014681,2.048e-05,0.0,0 STARLINK-5201,1 54076U 22136AB  24085.91117432  .00002048  00000-0  14681-3 0  9990,2 54076  53.2162 307.9735 0001625  91.7777 268.3401 15.08815690 79574,6917.955,95.439,540.944,538.696,0.0
54076.0,STARLINK-5201,PAYLOAD,2024-03-26 07:24:24,15.08830604,0.000183,53.2172,306.1892,94.4458,265.6743,0.0010835,0.00016994,0.0,0 STARLINK-5201,1 54076U 22136AB  24086.30861988  .00016994  00000-0  10835-2 0  9997,2 54076  53.2172 306.1892 0001830  94.4458 265.6743 15.08830604 79632,6917.909,95.438,541.04,538.508,0.0
54076.0,STARLINK-5201,PAYLOAD,2024-03-26 21:42:52,15.08854838,0.0001641,53.2159,303.5123,90.1039,270.0141,0.0014935,0.00023571,0.0,0 STARLINK-5201,1 54076U 22136AB  24086.90477936  .00023571  00000-0  14935-2 0  9993,2 54076  53.2159 303.5123 0001641  90.1039 270.0141 15.08854838 79247,6917.835,95.437,540.835,538.565,0.0
54076.0,STARLINK-5201,PAYLOAD,2024-03-27 07:15:11,15.08858226,0.0001491,53.2143,301.7286,100.4248,259.6912,0.0009281,0.00014521,0.0,0 STARLINK-5201,1 54076U 22136AB  24087.30221563  .00014521  00000-0  92810-3 0  9995,2 54076  53.2143 301.7286 0001491 100.4248 259.6912 15.08858226 79301,6917.825,95.436,540.721,538.658,0.0
54076.0,STARLINK-5201,PAYLOAD,2024-03-27 21:33:39,15.0886094,0.0001671,53.2156,299.0521,98.6857,261.4324,0.00050629,7.783e-05,0.0,0 STARLINK-5201,1 54076U 22136AB  24087.89836958  .00007783  00000-0  50629-3 0  9993,2 54076  53.2156 299.0521 0001671  98.6857 261.4324 15.08860940 79876,6917.816,95.436,540.837,538.525,0.0
